IRIDIUM 159             
1 43578U 18061K   25244.85292942  .00000527  00000+0  18092-3 0  9997
2 43578  86.4040 177.1980 0002155  78.5157 281.6281 14.34224434372056
IRIDIUM 180             
1 43922U 19002A   25244.92220914  .00000028  00000+0  28386-5 0  9999
2 43922  86.3951 114.1325 0001880  86.2665 273.8746 14.34217708347672
IRIDIUM 176             
1 43923U 19002B   25244.70403976  .00001525  00000+0  23788-3 0  9999
2 43923  86.6077 114.2095 0002475 101.2956 258.8539 14.72252777356807
IRIDIUM 168             
1 43924U 19002C   25244.91586724 -.00000031  00000+0 -18156-4 0  9993
2 43924  86.3954 114.2044 0001978  86.0775 274.0647 14.34217177347655
IRIDIUM 173             
1 43925U 19002D   25244.90317989  .00000006  00000+0 -47685-5 0  9999
2 43925  86.3952 114.1104 0001886  90.1329 270.0083 14.34218406347633
IRIDIUM 169             
1 43926U 19002E   25244.80445899  .00000431  00000+0  13449-3 0  9991
2 43926  86.4276 145.7629 0002340 117.3011 242.8426 14.38610433348765
IRIDIUM 172             
1 43927U 19002F   25244.89683875  .00000038  00000+0  64675-5 0  9991
2 43927  86.3950 114.1202 0001884  80.9886 279.1523 14.34217507347646
IRIDIUM 175             
1 43928U 19002G   25244.90303903  .00000728  00000+0  11146-3 0  9994
2 43928  86.1457  62.2515 0003131  91.8298 268.3277 14.72247581356825
